{
    "links": {
        "self": "http://www.neowsapp.com/rest/v1/neo/3368739?api_key=iIulBulltgU6a56xZRHN4H3l9WmuAYTsLGpBGhQ2"
    },
    "id": "3368739",
    "neo_reference_id": "3368739",
    "name": "(2007 DQ40)",
    "designation": "2007 DQ40",
    "nasa_jpl_url": "http://ssd.jpl.nasa.gov/sbdb.cgi?sstr=3368739",
    "absolute_magnitude_h": 23.0,
    "estimated_diameter": {
        "kilometers": {
            "estimated_diameter_min": 0.0667659413,
            "estimated_diameter_max": 0.1492931834
        },
        "meters": {
            "estimated_diameter_min": 66.7659413495,
            "estimated_diameter_max": 149.2931834393
        },
        "miles": {
            "estimated_diameter_min": 0.0414864197,
            "estimated_diameter_max": 0.0927664547
        },
        "feet": {
            "estimated_diameter_min": 219.0483710172,
            "estimated_diameter_max": 489.807047955
        }
    },
    "is_potentially_hazardous_asteroid": false,
    "close_approach_data": [
        {
            "close_approach_date": "1933-02-27",
            "close_approach_date_full": "1933-Feb-27 13:09",
            "epoch_date_close_approach": -1162637460000,
            "relative_velocity": {
                "kilometers_per_second": "23.2161059323",
                "kilometers_per_hour": "83577.981356303",
                "miles_per_hour": "51932.1073599762"
            },
            "miss_distance": {
                "astronomical": "0.2325735153",
                "lunar": "90.4710974517",
                "kilometers": "34792502.507292411",
                "miles": "21619058.5689648318"
            },
            "orbiting_body": "Earth"
        },
        {
            "close_approach_date": "1933-05-04",
            "close_approach_date_full": "1933-May-04 10:33",
            "epoch_date_close_approach": -1156944420000,
            "relative_velocity": {
                "kilometers_per_second": "17.3057342648",
                "kilometers_per_hour": "62300.6433531976",
                "miles_per_hour": "38711.1969768799"
            },
            "miss_distance": {
                "astronomical": "0.0197480325",
                "lunar": "7.6819846425",
                "kilometers": "2954263.598690775",
                "miles": "1835694.277951695"
            },
            "orbiting_body": "Mars"
        },
        {
            "close_approach_date": "2007-02-12",
            "close_approach_date_full": "2007-Feb-12 18:37",
            "epoch_date_close_approach": 1171305420000,
            "relative_velocity": {
                "kilometers_per_second": "15.6001858376",
                "kilometers_per_hour": "56160.6690153474",
                "miles_per_hour": "34896.0557001196"
            },
            "miss_distance": {
                "astronomical": "0.0247962857",
                "lunar": "9.6457551373",
                "kilometers": "3709471.524631459",
                "miles": "2304958.7230497742"
            },
            "orbiting_body": "Earth"
        }
    ],
    "orbital_data": {
        "orbit_id": "12",
        "orbit_determination_date": "2020-05-28 06:46:23",
        "first_observation_date": "2007-02-22",
        "last_observation_date": "2007-03-12",
        "data_arc_in_days": 18,
        "observations_used": 42,
        "orbit_uncertainty": "8",
        "minimum_orbit_intersection": ".0127093",
        "jupiter_tisserand_invariant": "3.555",
        "epoch_osculation": "2454161.5",
        "eccentricity": ".6350049607969178",
        "semi_major_axis": "2.004268137764279",
        "inclination": "1.879827577248329",
        "ascending_node_longitude": "122.3251674557225",
        "orbital_period": "1036.411350383389",
        "perihelion_distance": ".7315479275167617",
        "perihelion_argument": "312.5483650055584",
        "aphelion_distance": "3.276988348011797",
        "perihelion_time": "2454101.413784756999",
        "mean_anomaly": "20.87109281414047",
        "mean_motion": ".3473524290011191",
        "equinox": "J2000",
        "orbit_class": {
            "orbit_class_type": "APO",
            "orbit_class_description": "Near-Earth asteroid orbits which cross the Earth’s orbit similar to that of 1862 Apollo",
            "orbit_class_range": "a (semi-major axis) > 1.0 AU; q (perihelion) < 1.017 AU"
        }
    },
    "is_sentry_object": false
}